C/2020 Q1 (Borisov),e,142.9335,52.4044,10.0212,62.21957,0.0020082,0.97879126,0.0000,08/15.1244/2020,2000,g 14.0,4.0
# From MPEC 2023-CD7
C/2020 Q2 (PANSTARRS),e,3.3355,179.8225,118.2403,10.60707,0.0285306,0.48905755,53.2523,03/06.0/2025,2000,g 12.0,3.2
# From MPEC 2024-F34
C/2020 R2 (PANSTARRS),e,53.2196,195.1191,211.8786,432.1218,0.0001097,0.98912729,0.0000,02/25.3909/2022,2000,g  9.0,4.0
# From MPEC 2022-K19
C/2020 R4 (ATLAS),e,164.4099,323.2397,46.5352,97.78391,0.0010193,0.98955569,0.0000,03/02.3279/2021,2000,g 13.5,4.0
# From MPEC 2023-C45
P/2020 R5 (PANSTARRS),e,11.4395,272.9390,82.7644,4.992776,0.0883468,0.31329773,153.9864,03/06.0/2025,2000,g  9.5,6.0
# From MPEC 2021-Y10
C/2020 R6 (Rankin),e,82.8745,12.2220,272.0018,292.6125,0.0001969,0.98927145,0.0000,09/06.9607/2019,2000,g 11.0,4.0
# From MPEC 2024-PC5
C/2020 R7 (ATLAS),e,114.9031,268.3100,347.7799,14706,0.0000006,0.99979922,0.0000,09/16.0950/2022,2000,g  7.0,3.2
# From MPEC 2021-BE3
P/2020 S1 (PANSTARRS),e,13.7159,129.4954,255.1474,6.001248,0.0670412,0.50704775,101.1514,03/06.0/2025,2000,g 14.0,4.0
# From MPEC 2022-ST7
C/2020 S2 (PANSTARRS),e,22.3824,197.7063,202.4116,10.24895,0.0300390,0.82802782,46.1042,03/06.0/2025,2000,g 17.0,4.0
# From MPEC 2024-JU4
C/2020 S3 (Erasmus),e,20.0501,222.5438,350.0457,142.0202,0.0005823,0.99723004,0.0000,12/11.3823/2020,2000,g 13.5,3.2
# From MPEC 2024-N80
C/2020 S4 (PANSTARRS),h,02/09.4953/2023,20.5694,117.6866,21.0444,1.002564,3.370051,2000,8.5,3.2
# From MPEC 2021-BE3
P/2020 S5 (PANSTARRS),e,12.3406,316.0262,53.2789,4.057935,0.1205720,0.33750056,201.4315,03/06.0/2025,2000,g 14.5,4.0
# From MPEC 2021-BE3
P/2020 S7 (PANSTARRS),e,16.0721,328.0857,40.6600,5.036249,0.0872054,0.40968814,136.8299,03/06.0/2025,2000,g 14.5,4.0
# From MPEC 2021-P47
C/2020 S8 (Lemmon),e,108.5382,24.0247,160.1438,241.2972,0.0002630,0.99023612,0.0000,04/10.4612/2021,2000,g 12.5,4.0
# From MPEC 2022-TD3
C/2020 T2 (Palomar),e,27.8385,83.0459,150.3597,272.5633,0.0002190,0.99246438,0.0000,07/10.5539/2021,2000,g 11.0,3.2
# From MPEC 2021-N06
P/2020 T3 (PANSTARRS),e,7.2990,73.9928,357.0738,3.516179,0.1494850,0.59246815,224.8111,03/06.0/2025,2000,g 18.0,3.2
# From MPEC 2021-N06
C/2020 T4 (PANSTARRS),h,07/05.9709/2021,83.8391,50.6131,79.5735,1.000603,2.188172,2000,13.0,3.2
# From MPEC 2021-BE3
C/2020 T5 (Lemmon),e,66.5499,237.8347,90.3836,622.0358,0.0000635,0.99695013,0.0000,10/07.9922/2020,2000,g 16.0,4.0
# From MPEC 2021-N06
P/2020 U2 (PANSTARRS),e,6.4196,342.8272,84.7539,3.777846,0.1342263,0.51139011,205.3289,03/06.0/2025,2000,g 18.0,4.0
# From MPEC 2021-W31
C/2020 U3 (Rankin),e,30.1394,282.6052,124.4908,67.61263,0.0017728,0.96621842,2.6395,03/06.0/2025,2000,g 15.0,4.0
# From MPEC 2024-TD8
C/2020 U4 (PANSTARRS),h,04/09.9055/2022,167.0042,120.4038,70.1640,1.001071,5.361476,2000,7.0,4.0
# From MPEC 2024-GJ3
C/2020 U5 (PANSTARRS),e,97.3090,107.3133,75.4630,7814,0.0000014,0.99951922,0.0000,04/28.2748/2022,2000,g  8.0,4.0
# From MPEC 2025-A40
C/2020 V2 (ZTF),h,05/08.5011/2023,131.6129,212.3894,162.4431,1.000985,2.229002,2000,4.9,4.0
# From MPEC 2023-D72
P/2020 V3 (PANSTARRS),e,23.0241,198.2664,249.7443,8.405707,0.0404429,0.25790504,59.8583,03/06.0/2025,2000,g  8.3,4.0
# From MPEC 2024-F34
P/2020 V4 (Rankin),e,14.2390,203.4883,257.2149,9.394797,0.0342273,0.45155308,45.3380,03/06.0/2025,2000,g  9.0,4.0
# From MPEC 2021-BE3
P/2020 W1 (Rankin),e,10.7778,124.3876,265.3768,7.225445,0.0507466,0.26567266,90.8532,03/06.0/2025,2000,g 10.0,4.0
# From MPEC 2021-BE3
C/2020 W5 (Lemmon),h,11/30.8130/2020,88.6188,75.4647,24.5896,1.002011,3.369903,2000,15.0,4.0
# From MPEC 2024-PC5
P/2020 WJ5 (Lemmon),e,22.2881,177.7721,338.0599,6.015222,0.0668077,0.17204198,89.8432,03/06.0/2025,2000,g  8.5,4.0
# From MPEC 2024-F34
P/2020 X1 (ATLAS),e,31.6939,55.9844,323.5285,4.535592,0.1020359,0.36458236,172.4119,03/06.0/2025,2000,g 13.0,4.0
# From MPEC 2024-A43
C/2020 X2 (ATLAS),e,18.1863,105.3596,347.5415,16.53151,0.0146634,0.76827264,23.0200,03/06.0/2025,2000,g 10.6,4.0
# From MPEC 2021-S45
C/2020 X4 (Leonard),e,80.6524,161.9447,140.3043,40.62138,0.0038069,0.87138098,5.9824,03/06.0/2025,2000,g  9.0,4.0
# From MPEC 2024-YC7
C/2020 Y2 (ATLAS),e,101.2007,26.5359,266.4132,1333,0.0000203,0.99763980,0.0000,06/17.8753/2022,2000,g  6.5,4.0
# From MPEC 2021-R75
C/2020 Y3 (ATLAS),e,83.1331,191.3655,341.8537,137.7321,0.0006097,0.98554702,0.0000,12/03.2371/2020,2000,g 13.5,4.0
# From MPEC 2025-A40
C/2021 A1 (Leonard),h,01/03.6855/2022,132.7601,255.9141,225.1444,1.000223,0.615750,2000,8.5,4.0
# From MPEC 2025-A40
C/2021 A2 (NEOWISE),e,107.0465,125.0755,338.7864,228.5255,0.0002853,0.99380745,0.0000,01/21.9513/2021,2000,g 13.5,4.0
# From MPEC 2022-ED3
C/2021 A4 (NEOWISE),e,111.6323,307.0917,204.7459,42.47367,0.0035606,0.97292477,0.0000,03/19.5205/2021,2000,g 16.0,4.0
# From MPEC 2021-BE3
P/2021 A5 (PANSTARRS),e,18.1886,328.8101,61.5132,3.046621,0.1853431,0.13984669,291.3900,03/06.0/2025,2000,g 15.0,4.0
# From MPEC 2024-P23
C/2021 A6 (PANSTARRS),e,75.5683,164.0336,351.6154,10685,0.0000009,0.99925837,0.0000,05/02.9482/2021,2000,g  7.0,4.0
# From MPEC 2022-M88
C/2021 A7 (NEOWISE),e,78.2067,154.4168,355.9915,1832,0.0000126,0.99892727,0.0000,07/15.1456/2021,2000,g 10.0,4.0
# From MPEC 2025-DP4
C/2021 A9 (PANSTARRS),h,12/03.6720/2023,158.0171,314.8483,211.6057,1.000484,7.762676,2000,6.0,4.0
# From MPEC 2021-N06
C/2021 A10 (NEOWISE),e,151.9855,188.8181,82.6119,89.52727,0.0011635,0.98585868,0.0000,03/14.7383/2021,2000,g 19.0,4.0
# From MPEC 2022-L66
C/2021 B2 (PANSTARRS),e,38.0858,120.4480,335.0929,402.5443,0.0001220,0.99375512,0.0000,05/04.8257/2021,2000,g 14.0,4.0
# From MPEC 2021-N06
C/2021 B3 (NEOWISE),e,119.4749,67.2748,293.5838,34.22190,0.0049232,0.93668099,7.1758,03/06.0/2025,2000,g 13.5,4.0
# From MPEC 2023-KD6
C/2021 C1 (Rankin),e,143.0427,186.8407,336.0764,2022,0.0000108,0.99828250,0.0000,12/05.9730/2020,2000,g 11.5,4.0
# From MPEC 2021-U31
P/2021 C2 (PANSTARRS),e,21.9400,66.4559,78.7077,9.543249,0.0334318,0.48825920,49.1664,03/06.0/2025,2000,g 12.0,4.0
# From MPEC 2024-M41
C/2021 C3 (Catalina),e,122.1980,181.8671,356.9802,60.51351,0.0020938,0.96242930,3.1066,03/06.0/2025,2000,g 14.0,4.0
# From MPEC 2022-M88
C/2021 C4 (ATLAS),e,132.8354,194.2395,320.0459,4545,0.0000032,0.99901129,0.0000,01/16.3532/2021,2000,g  9.0,4.0
# From MPEC 2024-N80
C/2021 C5 (PANSTARRS),e,50.8017,323.6733,270.8964,1699,0.0000141,0.99809202,0.0000,02/10.9659/2023,2000,g  9.0,4.0
# From MPEC 2022-YB4
C/2021 C6 (Lemmon),e,164.6079,332.3308,203.8386,2664,0.0000072,0.99876765,0.0000,11/12.0126/2021,2000,g 12.0,4.0
# From MPEC 2022-F14
C/2021 D1 (SWAN),e,31.3646,311.1782,72.4305,102.0595,0.0009559,0.99111155,0.0000,02/27.4928/2021,2000,g 13.0,4.0
# From MPEC 2023-J29
C/2021 D2 (ZTF),h,02/03.7447/2022,83.7754,305.6344,125.0561,1.001467,2.948564,2000,9.0,4.0
# From MPEC 2022-UY9
A/2021 E2,e,167.4924,190.7651,342.2372,202.6498,0.0003417,0.98873650,0.0000,12/09.2269/2020,2000,g 15.0,2.0
# From MPEC 2024-GJ3
C/2021 E3 (ZTF),h,06/11.3561/2022,112.5242,104.4840,228.8088,1.000031,1.777314,2000,8.5,4.0
# From MPEC 2024-N80
A/2021 E4,e,116.3757,171.1471,48.2738,504.3592,0.0000870,0.99072307,0.0000,04/24.8298/2022,2000,g 13.5,22.0
# From MPEC 2022-QD9
C/2021 F1 (Lemmon-PANSTARRS),e,107.2995,203.5267,146.9333,247.4721,0.0002532,0.99596316,0.0000,04/06.7331/2022,2000,g 13.5,4.0
# From MPEC 2021-J72
C/2021 G1 (Leonard),e,131.5465,270.6972,107.4292,71.26705,0.0016382,0.95191642,2.1697,03/06.0/2025,2000,g 14.0,4.0
# From MPEC 2025-EB9
C/2021 G2 (ATLAS),h,09/09.1385/2024,48.4697,221.0953,343.2678,1.000576,4.982339,2000,5.5,4.0
# From MPEC 2022-X67
C/2021 G3 (PANSTARRS),e,102.8713,147.3540,10.5878,8288,0.0000013,0.99937484,0.0000,10/17.8253/2021,2000,g 10.5,4.0
# From MPEC 2021-Y10
P/2021 HS (PANSTARRS),e,12.1545,262.3584,46.1290,4.193738,0.1147631,0.80939595,150.2145,03/06.0/2025,2000,g 22.0,4.0
# From MPEC 2022-C56
C/2021 J1 (Maury-Attard),e,92.7075,88.4328,147.2186,26.22302,0.0073397,0.93383257,10.8304,03/06.0/2025,2000,g 15.5,4.0
# From MPEC 2023-XP6
C/2021 J2 (PANSTARRS),e,156.2117,23.3148,171.8955,112.6037,0.0008249,0.95825015,1.0409,03/06.0/2025,2000,g 12.0,4.0
# From MPEC 2024-F34
P/2021 J3 (ATLAS),e,14.5174,111.0336,125.6729,8.895317,0.0371503,0.44923527,77.1003,03/06.0/2025,2000,g  7.0,4.0
# From MPEC 2022-O08
C/2021 K1 (ATLAS),e,16.2714,140.9232,184.2372,12.61502,0.0219975,0.80167115,30.8681,03/06.0/2025,2000,g 11.0,4.0
# From MPEC 2022-O01
C/2021 K2 (MASTER),h,09/09.3706/2021,100.8705,282.3354,343.2966,1.000600,5.465154,2000,8.0,4.0
# From MPEC 2022-L66
C/2021 K3 (Catalina),h,02/03.7653/2022,134.7804,114.6039,182.0286,1.004345,5.228845,2000,10.0,4.0
# From MPEC 2021-W31
P/2021 L2 (Leonard),e,21.0644,266.6528,51.4521,4.047884,0.1210214,0.52071135,159.9850,03/06.0/2025,2000,g 17.0,4.0
# From MPEC 2024-H50
C/2021 L3 (Borisov),h,02/14.9776/2022,78.5446,345.0128,91.6470,1.004660,8.459769,2000,6.0,4.0
# From MPEC 2022-TA0
P/2021 N1 (ZTF),e,11.4858,301.1364,21.2315,2.979513,0.1916400,0.67573587,262.4808,03/06.0/2025,2000,g 19.0,4.0
# From MPEC 2024-GJ3
P/2021 N2 (Fuls),e,13.0606,221.7389,177.6199,6.946451,0.0538344,0.45228271,65.0155,03/06.0/2025,2000,g  9.5,4.0
# From MPEC 2022-YB4
C/2021 N3 (PANSTARRS),e,26.7604,337.5203,304.6295,141.5111,0.0005855,0.95962372,0.9730,03/06.0/2025,2000,g  8.5,4.0
# From MPEC 2022-A21
C/2021 O1 (Nishimura),e,27.5789,41.5605,74.4083,4164,0.0000037,0.99981201,0.0000,08/14.6590/2021,2000,g 10.5,4.0
# From MPEC 2022-L66
C/2021 O3 (PANSTARRS),h,04/21.2427/2022,56.8193,188.8359,299.9961,1.000047,0.285224,2000,10.5,4.0
# From MPEC 2024-F34
C/2021 P1 (PANSTARRS),e,51.6244,359.7059,40.5234,2872,0.0000064,0.99847539,0.0000,06/02.6381/2022,2000,g 11.0,4.0
# From MPEC 2024-NE4
C/2021 P2 (PANSTARRS),e,150.0578,32.0914,76.7215,12278,0.0000007,0.99958718,0.0000,01/23.0995/2023,2000,g  9.0,4.0
# From MPEC 2024-GJ3
P/2021 P3 (PANSTARRS),e,27.1597,358.2492,334.0335,4.412403,0.1063387,0.33838364,146.4634,03/06.0/2025,2000,g 14.0,4.0
# From MPEC 2023-A50
